STARLINK-5290           
1 54157U 22141A   24022.80745289 -.00000695  00000+0 -25593-4 0  9994
2 54157  53.2174 261.7377 0001239  97.2407 262.8726 15.08826010 68438
STARLINK-5297           
1 54158U 22141B   24022.81480958  .00002301  00000+0  16268-3 0  9997
2 54158  53.2158 261.7831 0001439 110.3442 249.7705 15.08829008 68435
STARLINK-5294           
1 54159U 22141C   24022.81111900  .00000186  00000+0  29783-4 0  9992
2 54159  53.2156 261.7613 0001500 118.3219 241.7924 15.08838108 68437
STARLINK-5233           
1 54160U 22141D   24022.79132753  .00000091  00000+0  23786-4 0  9992
2 54160  53.2165 216.7229 0001361  87.0425 273.0723 15.08838787 69066
STARLINK-5269           
1 54161U 22141E   24022.08344237  .00007006  00000+0  45808-3 0  9998
2 54161  53.2159 265.0373 0001677  92.2201 267.8983 15.08819735 68326
STARLINK-5273           
1 54162U 22141F   24022.80375116  .00001810  00000+0  13179-3 0  9992
2 54162  53.2151 261.7133 0001683 113.7193 246.3976 15.08843947 68430
STARLINK-5161           
1 54163U 22141G   24022.81573702 -.00000263  00000+0  15705-5 0  9996
2 54163  53.2164 251.8108 0001362 102.8093 257.3052 15.08832274 68572
STARLINK-5278           
1 54164U 22141H   24022.81941951  .00000860  00000+0  72143-4 0  9992
2 54164  53.2169 251.8342 0001399  72.0715 288.0429 15.08835597 68577
STARLINK-5279           
1 54165U 22141J   24021.93895114  .00003721  00000+0  25177-3 0  9997
2 54165  53.2188 265.5514 0001544  83.1404 276.9764 15.08833818 68305
STARLINK-5280           
1 54166U 22141K   24022.81207116 -.00000942  00000+0 -41173-4 0  9994
2 54166  53.2170 251.7918 0000830 132.7611 227.3451 15.08816339 68571
STARLINK-5243           
1 54167U 22141L   24022.78164454  .00001184  00000+0  92473-4 0  9994
2 54167  53.2160 261.5739 0001300 101.4028 258.7110 15.08838797 68425
STARLINK-5245           
1 54168U 22141M   24021.88100304 -.00000949  00000+0 -41548-4 0  9996
2 54168  53.2175 255.9336 0001585 117.1221 242.9933 15.08841153 68435
STARLINK-5282           
1 54169U 22141N   24022.82301722  .00000431  00000+0  45162-4 0  9999
2 54169  53.2165 251.1588 0001356  86.6694 273.4453 15.08840689 68587
