[{"OBJECT_NAME":"STARLINK-5290","OBJECT_ID":"2022-141A","EPOCH":"2024-01-22T19:22:43.929696","MEAN_MOTION":15.0882601,"ECCENTRICITY":0.0001239,"INCLINATION":53.2174,"RA_OF_ASC_NODE":261.7377,"ARG_OF_PERICENTER":97.2407,"MEAN_ANOMALY":262.8726,"EPHEMERIS_TYPE":0,"CLASSIFICATION_TYPE":"U","NORAD_CAT_ID":54157,"ELEMENT_SET_NO":999,"REV_AT_EPOCH":6843,"BSTAR":-2.5593e-5,"MEAN_MOTION_DOT":-6.95e-6,"MEAN_MOTION_DDOT":0},{"OBJECT_NAME":"STARLINK-5297","OBJECT_ID":"2022-141B","EPOCH":"2024-01-22T19:33:19.547712","MEAN_MOTION":15.08829008,"ECCENTRICITY":0.0001439,"INCLINATION":53.2158,"RA_OF_ASC_NODE":261.7831,"ARG_OF_PERICENTER":110.3442,"MEAN_ANOMALY":249.7705,"EPHEMERIS_TYPE":0,"CLASSIFICATION_TYPE":"U","NORAD_CAT_ID":54158,"ELEMENT_SET_NO":999,"REV_AT_EPOCH":6843,"BSTAR":0.00016268,"MEAN_MOTION_DOT":2.301e-5,"MEAN_MOTION_DDOT":0},{"OBJECT_NAME":"STARLINK-5294","OBJECT_ID":"2022-141C","EPOCH":"2024-01-22T19:28:00.681600","MEAN_MOTION":15.08838108,"ECCENTRICITY":0.00015,"INCLINATION":53.2156,"RA_OF_ASC_NODE":261.7613,"ARG_OF_PERICENTER":118.3219,"MEAN_ANOMALY":241.7924,"EPHEMERIS_TYPE":0,"CLASSIFICATION_TYPE":"U","NORAD_CAT_ID":54159,"ELEMENT_SET_NO":999,"REV_AT_EPOCH":6843,"BSTAR":2.9783e-5,"MEAN_MOTION_DOT":1.86e-6,"MEAN_MOTION_DDOT":0},{"OBJECT_NAME":"STARLINK-5233","OBJECT_ID":"2022-141D","EPOCH":"2024-01-22T18:59:30.698592","MEAN_MOTION":15.08838787,"ECCENTRICITY":0.0001361,"INCLINATION":53.2165,"RA_OF_ASC_NODE":216.7229,"ARG_OF_PERICENTER":87.0425,"MEAN_ANOMALY":273.0723,"EPHEMERIS_TYPE":0,"CLASSIFICATION_TYPE":"U","NORAD_CAT_ID":54160,"ELEMENT_SET_NO":999,"REV_AT_EPOCH":6906,"BSTAR":2.3786e-5,"MEAN_MOTION_DOT":9.1e-7,"MEAN_MOTION_DDOT":0},{"OBJECT_NAME":"STARLINK-5269","OBJECT_ID":"2022-141E","EPOCH":"2024-01-22T02:00:09.420768","MEAN_MOTION":15.08819735,"ECCENTRICITY":0.0001677,"INCLINATION":53.2159,"RA_OF_ASC_NODE":265.0373,"ARG_OF_PERICENTER":92.2201,"MEAN_ANOMALY":267.8983,"EPHEMERIS_TYPE":0,"CLASSIFICATION_TYPE":"U","NORAD_CAT_ID":54161,"ELEMENT_SET_NO":999,"REV_AT_EPOCH":6832,"BSTAR":0.00045808,"MEAN_MOTION_DOT":7.006e-5,"MEAN_MOTION_DDOT":0},{"OBJECT_NAME":"STARLINK-5273","OBJECT_ID":"2022-141F","EPOCH":"2024-01-22T19:17:24.100224","MEAN_MOTION":15.08843947,"ECCENTRICITY":0.0001683,"INCLINATION":53.2151,"RA_OF_ASC_NODE":261.7133,"ARG_OF_PERICENTER":113.7193,"MEAN_ANOMALY":246.3976,"EPHEMERIS_TYPE":0,"CLASSIFICATION_TYPE":"U","NORAD_CAT_ID":54162,"ELEMENT_SET_NO":999,"REV_AT_EPOCH":6843,"BSTAR":0.00013179,"MEAN_MOTION_DOT":1.81e-5,"MEAN_MOTION_DDOT":0},{"OBJECT_NAME":"STARLINK-5161","OBJECT_ID":"2022-141G","EPOCH":"2024-01-22T19:34:39.678528","MEAN_MOTION":15.08832274,"ECCENTRICITY":0.0001362,"INCLINATION":53.2164,"RA_OF_ASC_NODE":251.8108,"ARG_OF_PERICENTER":102.8093,"MEAN_ANOMALY":257.3052,"EPHEMERIS_TYPE":0,"CLASSIFICATION_TYPE":"U","NORAD_CAT_ID":54163,"ELEMENT_SET_NO":999,"REV_AT_EPOCH":6857,"BSTAR":1.5705e-6,"MEAN_MOTION_DOT":-2.63e-6,"MEAN_MOTION_DDOT":0},{"OBJECT_NAME":"STARLINK-5278","OBJECT_ID":"2022-141H","EPOCH":"2024-01-22T19:39:57.845664","MEAN_MOTION":15.08835597,"ECCENTRICITY":0.0001399,"INCLINATION":53.2169,"RA_OF_ASC_NODE":251.8342,"ARG_OF_PERICENTER":72.0715,"MEAN_ANOMALY":288.0429,"EPHEMERIS_TYPE":0,"CLASSIFICATION_TYPE":"U","NORAD_CAT_ID":54164,"ELEMENT_SET_NO":999,"REV_AT_EPOCH":6857,"BSTAR":7.2143e-5,"MEAN_MOTION_DOT":8.6e-6,"MEAN_MOTION_DDOT":0},{"OBJECT_NAME":"STARLINK-5279","OBJECT_ID":"2022-141J","EPOCH":"2024-01-21T22:32:05.378496","MEAN_MOTION":15.08833818,"ECCENTRICITY":0.0001544,"INCLINATION":53.2188,"RA_OF_ASC_NODE":265.5514,"ARG_OF_PERICENTER":83.1404,"MEAN_ANOMALY":276.9764,"EPHEMERIS_TYPE":0,"CLASSIFICATION_TYPE":"U","NORAD_CAT_ID":54165,"ELEMENT_SET_NO":999,"REV_AT_EPOCH":6830,"BSTAR":0.00025177,"MEAN_MOTION_DOT":3.721e-5,"MEAN_MOTION_DDOT":0},{"OBJECT_NAME":"STARLINK-5280","OBJECT_ID":"2022-141K","EPOCH":"2024-01-22T19:29:22.948224","MEAN_MOTION":15.08816339,"ECCENTRICITY":8.3e-5,"INCLINATION":53.217,"RA_OF_ASC_NODE":251.7918,"ARG_OF_PERICENTER":132.7611,"MEAN_ANOMALY":227.3451,"EPHEMERIS_TYPE":0,"CLASSIFICATION_TYPE":"U","NORAD_CAT_ID":54166,"ELEMENT_SET_NO":999,"REV_AT_EPOCH":6857,"BSTAR":-4.1173e-5,"MEAN_MOTION_DOT":-9.42e-6,"MEAN_MOTION_DDOT":0},{"OBJECT_NAME":"STARLINK-5243","OBJECT_ID":"2022-141L","EPOCH":"2024-01-22T18:45:34.088256","MEAN_MOTION":15.08838797,"ECCENTRICITY":0.00013,"INCLINATION":53.216,"RA_OF_ASC_NODE":261.5739,"ARG_OF_PERICENTER":101.4028,"MEAN_ANOMALY":258.711,"EPHEMERIS_TYPE":0,"CLASSIFICATION_TYPE":"U","NORAD_CAT_ID":54167,"ELEMENT_SET_NO":999,"REV_AT_EPOCH":6842,"BSTAR":9.2473e-5,"MEAN_MOTION_DOT":1.184e-5,"MEAN_MOTION_DDOT":0},{"OBJECT_NAME":"STARLINK-5245","OBJECT_ID":"2022-141M","EPOCH":"2024-01-21T21:08:38.662656","MEAN_MOTION":15.08841153,"ECCENTRICITY":0.0001585,"INCLINATION":53.2175,"RA_OF_ASC_NODE":255.9336,"ARG_OF_PERICENTER":117.1221,"MEAN_ANOMALY":242.9933,"EPHEMERIS_TYPE":0,"CLASSIFICATION_TYPE":"U","NORAD_CAT_ID":54168,"ELEMENT_SET_NO":999,"REV_AT_EPOCH":6843,"BSTAR":-4.1548e-5,"MEAN_MOTION_DOT":-9.49e-6,"MEAN_MOTION_DDOT":0},{"OBJECT_NAME":"STARLINK-5282","OBJECT_ID":"2022-141N","EPOCH":"2024-01-22T19:45:08.687808","MEAN_MOTION":15.08840689,"ECCENTRICITY":0.0001356,"INCLINATION":53.2165,"RA_OF_ASC_NODE":251.1588,"ARG_OF_PERICENTER":86.6694,"MEAN_ANOMALY":273.4453,"EPHEMERIS_TYPE":0,"CLASSIFICATION_TYPE":"U","NORAD_CAT_ID":54169,"ELEMENT_SET_NO":999,"REV_AT_EPOCH":6858,"BSTAR":4.5162e-5,"MEAN_MOTION_DOT":4.31e-6,"MEAN_MOTION_DDOT":0}]
